CS1                     
1 49261U 21088B   26068.75173904  .00015722  00000+0  51176-3 0  9998
2 49261  97.3882 132.1684 0014129  78.0335 282.2490 15.31848439245182
STARLINK-35750          
1 66209U 25244D   26068.75749545  .00028065  00000+0  95626-3 0  9999
2 66209  53.1591 229.3372 0001083  80.4062 279.7061 15.30194327 21672
